STARLINK-38073          
1 69986U 26159M   26201.91668981 -.00022711  00000+0 -11807-3 0  9994
2 69986  97.2849  40.9348 0001307  71.1651  92.3645 15.80827060  2771
STARLINK-38099          
1 69987U 26159N   26201.91668981  .00011400  00000+0  60217-4 0  9996
2 69987  97.2848  40.9366 0001590  91.7324  76.0938 15.80801184  2773
STARLINK-38064          
1 69988U 26159P   26201.91668981  .00077491  00000+0  40286-3 0  9992
2 69988  97.2850  40.9401 0001460 100.6164  75.7702 15.80752972  2770
STARLINK-38080          
1 69989U 26159Q   26201.91668981  .00018591  00000+0  97714-4 0  9998
2 69989  97.2849  40.9384 0001403 106.5958  65.5138 15.80787465  2777
STARLINK-38070          
1 69990U 26159R   26201.91668981  .00020536  00000+0  10781-3 0  9990
2 69990  97.2850  40.9431 0000832  97.9436  82.7162 15.80792495  2770
STARLINK-38042          
1 69991U 26159S   26201.91668981 -.00218418  00000+0 -11619-2 0  9991
2 69991  97.2848  40.9438 0001329  83.4394 101.4259 15.80934885  2777
STARLINK-38071          
1 69992U 26159T   26201.91668981 -.00541953  00000+0 -29577-2 0  9997
2 69992  97.2851  40.9462 0001548  74.2483 114.7523 15.81180467  2770
STARLINK-38082          
1 69993U 26159U   26201.91668981 -.01025371  00000+0 -58175-2 0  9996
2 69993  97.2851  40.9486 0001311  69.0488 124.0046 15.81549459  2776
STARLINK-38090          
1 69994U 26159V   26201.91668981 -.01224945  00000+0 -68664-2 0  9999
2 69994  97.2850  40.9499 0001630  89.8532 107.2062 15.81845754  2772
STARLINK-38084          
1 69995U 26159W   26201.91668981 -.01464169  00000+0 -81028-2 0  9993
2 69995  97.2855  40.9528 0001774  85.6601 115.3719 15.82161425  2777
STARLINK-38085          
1 69996U 26159X   26201.91668981 -.01354372  00000+0 -75162-2 0  9990
2 69996  97.2852  40.9535 0001709 100.3990 104.5360 15.82346394  2779
STARLINK-38091          
1 69997U 26159Y   26201.91668981 -.01350578  00000+0 -74204-2 0  9991
2 69997  97.2853  40.9556 0001657  91.1140 117.7233 15.82551443  2778
STARLINK-38086          
1 69998U 26159Z   26201.91668981 -.01286124  00000+0 -69636-2 0  9990
2 69998  97.2855  40.9568 0001687  89.0127 123.6620 15.82718943  2774
