OBJECT_NAME,OBJECT_ID,EPOCH,MEAN_MOTION,ECCENTRICITY,INCLINATION,RA_OF_ASC_NODE,ARG_OF_PERICENTER,MEAN_ANOMALY,EPHEMERIS_TYPE,CLASSIFICATION_TYPE,NORAD_CAT_ID,ELEMENT_SET_NO,REV_AT_EPOCH,BSTAR,MEAN_MOTION_DOT,MEAN_MOTION_DDOT
STARLINK-38073,2026-159M,2026-07-20T22:00:01.999584,15.80827060,.00013078,97.2849,40.9348,71.1651,92.3645,0,U,69986,999,277,-.11807273E-3,-.22711E-3,0
STARLINK-38099,2026-159N,2026-07-20T22:00:01.999584,15.80801184,.000159,97.2848,40.9366,91.7324,76.0938,0,U,69987,999,277,.6021712E-4,.114E-3,0
STARLINK-38064,2026-159P,2026-07-20T22:00:01.999584,15.80752972,.00014603,97.2850,40.9401,100.6164,75.7702,0,U,69988,999,277,.40286276E-3,.77491E-3,0
STARLINK-38080,2026-159Q,2026-07-20T22:00:01.999584,15.80787465,.00014032,97.2849,40.9384,106.5958,65.5138,0,U,69989,999,277,.9771436E-4,.18591E-3,0
STARLINK-38070,2026-159R,2026-07-20T22:00:01.999584,15.80792495,.00008327,97.2850,40.9431,97.9436,82.7162,0,U,69990,999,277,.10781474E-3,.20536E-3,0
STARLINK-38042,2026-159S,2026-07-20T22:00:01.999584,15.80934885,.00013296,97.2848,40.9438,83.4394,101.4259,0,U,69991,999,277,-.11619075E-2,-.218418E-2,0
STARLINK-38071,2026-159T,2026-07-20T22:00:01.999584,15.81180467,.0001548,97.2851,40.9462,74.2483,114.7523,0,U,69992,999,277,-.29576537E-2,-.541953E-2,0
STARLINK-38082,2026-159U,2026-07-20T22:00:01.999584,15.81549459,.0001311,97.2851,40.9486,69.0488,124.0046,0,U,69993,999,277,-.58175248E-2,-.1025371E-1,0
STARLINK-38090,2026-159V,2026-07-20T22:00:01.999584,15.81845754,.00016308,97.2850,40.9499,89.8532,107.2062,0,U,69994,999,277,-.68664463E-2,-.1224945E-1,0
STARLINK-38084,2026-159W,2026-07-20T22:00:01.999584,15.82161425,.00017747,97.2855,40.9528,85.6601,115.3719,0,U,69995,999,277,-.81027783E-2,-.1464169E-1,0
STARLINK-38085,2026-159X,2026-07-20T22:00:01.999584,15.82346394,.00017097,97.2852,40.9535,100.3990,104.5360,0,U,69996,999,277,-.7516159E-2,-.1354372E-1,0
STARLINK-38091,2026-159Y,2026-07-20T22:00:01.999584,15.82551443,.00016572,97.2853,40.9556,91.1140,117.7233,0,U,69997,999,277,-.74204135E-2,-.1350578E-1,0
STARLINK-38086,2026-159Z,2026-07-20T22:00:01.999584,15.82718943,.00016874,97.2855,40.9568,89.0127,123.6620,0,U,69998,999,277,-.69635649E-2,-.1286124E-1,0
